[Satellite]
VERSION=1.1
NAME=INTELSAT 603 (IS-603)
NICKNAME=INTELSAT 603 (IS-603)
TLE1=1 20523U 90021A   11058.11803241  .00000053  00000-0  00000+0 0  7792
TLE2=2 20523   7.8457  59.9017 0001199 311.7444 198.9113  1.00273341 69693
